{"type": "FeatureCollection", "features": [{"type": "Feature", "properties": {"norad_id": 25590, "name": "COSMOS 2361", "group": "musson", "lat": -77.32791395861935, "lon": -41.78063397030343, "alt_km": 973.9144508397139, "timestamp": "2025-12-02T10:50:47.543662+00:00", "meta": {"OBJECT_NAME": "COSMOS 2361", "OBJECT_ID": "1998-076A", "EPOCH": "2025-12-02T04:34:49.987776", "MEAN_MOTION": 13.73215716, "ECCENTRICITY": 0.0030184, "INCLINATION": 82.9342, "RA_OF_ASC_NODE": 351.8892, "ARG_OF_PERICENTER": 296.2219, "MEAN_ANOMALY": 134.4767, "EPHEMERIS_TYPE": 0, "CLASSIFICATION_TYPE": "U", "NORAD_CAT_ID": 25590, "ELEMENT_SET_NO": 999, "REV_AT_EPOCH": 34966, "BSTAR": 7.729e-05, "MEAN_MOTION_DOT": 8.7e-07, "MEAN_MOTION_DDOT": 0}, "tle": {"line1": "1 25590U 98076A   25336.19085634  .00000087  00000+0  77290-4 0  9999", "line2": "2 25590  82.9342 351.8892 0030184 296.2219 134.4767 13.73215716349660"}}, "geometry": {"type": "Point", "coordinates": [-41.78063397030343, -77.32791395861935]}}, {"type": "Feature", "properties": {"norad_id": 26818, "name": "COSMOS 2378", "group": "musson", "lat": -40.277842641627835, "lon": 1.315401979542828, "alt_km": 989.167010380902, "timestamp": "2025-12-02T10:50:47.543717+00:00", "meta": {"OBJECT_NAME": "COSMOS 2378", "OBJECT_ID": "2001-023A", "EPOCH": "2025-12-02T04:22:06.895200", "MEAN_MOTION": 13.74140493, "ECCENTRICITY": 0.003187, "INCLINATION": 82.9281, "RA_OF_ASC_NODE": 7.5536, "ARG_OF_PERICENTER": 235.0573, "MEAN_ANOMALY": 189.5288, "EPHEMERIS_TYPE": 0, "CLASSIFICATION_TYPE": "U", "NORAD_CAT_ID": 26818, "ELEMENT_SET_NO": 999, "REV_AT_EPOCH": 22778, "BSTAR": 5.6404e-05, "MEAN_MOTION_DOT": 6.8e-07, "MEAN_MOTION_DDOT": 0}, "tle": {"line1": "1 26818U 01023A   25336.18202425  .00000068  00000+0  56404-4 0  9990", "line2": "2 26818  82.9281   7.5536 0031870 235.0573 189.5288 13.74140493227780"}}, "geometry": {"type": "Point", "coordinates": [1.315401979542828, -40.277842641627835]}}, {"type": "Feature", "properties": {"norad_id": 27436, "name": "COSMOS 2389", "group": "musson", "lat": 50.48209590257602, "lon": 125.97270107557745, "alt_km": 949.5687549302647, "timestamp": "2025-12-02T10:50:47.543733+00:00", "meta": {"OBJECT_NAME": "COSMOS 2389", "OBJECT_ID": "2002-026A", "EPOCH": "2025-12-02T01:50:16.893024", "MEAN_MOTION": 13.7515292, "ECCENTRICITY": 0.0047791, "INCLINATION": 82.9493, "RA_OF_ASC_NODE": 314.8795, "ARG_OF_PERICENTER": 89.6966, "MEAN_ANOMALY": 341.7031, "EPHEMERIS_TYPE": 0, "CLASSIFICATION_TYPE": "U", "NORAD_CAT_ID": 27436, "ELEMENT_SET_NO": 999, "REV_AT_EPOCH": 18002, "BSTAR": 6.4939e-05, "MEAN_MOTION_DOT": 7.8e-07, "MEAN_MOTION_DDOT": 0}, "tle": {"line1": "1 27436U 02026A   25336.07658441  .00000078  00000+0  64939-4 0  9995", "line2": "2 27436  82.9493 314.8795 0047791  89.6966 341.7031 13.75152920180023"}}, "geometry": {"type": "Point", "coordinates": [125.97270107557745, 50.48209590257602]}}, {"type": "Feature", "properties": {"norad_id": 27818, "name": "COSMOS 2398", "group": "musson", "lat": -3.990413115043541, "lon": 100.77472035710348, "alt_km": 977.4766660569003, "timestamp": "2025-12-02T10:50:47.543745+00:00", "meta": {"OBJECT_NAME": "COSMOS 2398", "OBJECT_ID": "2003-023A", "EPOCH": "2025-12-02T03:00:40.085280", "MEAN_MOTION": 13.72384089, "ECCENTRICITY": 0.0032168, "INCLINATION": 82.9473, "RA_OF_ASC_NODE": 280.5205, "ARG_OF_PERICENTER": 140.3156, "MEAN_ANOMALY": 231.2604, "EPHEMERIS_TYPE": 0, "CLASSIFICATION_TYPE": "U", "NORAD_CAT_ID": 27818, "ELEMENT_SET_NO": 999, "REV_AT_EPOCH": 12671, "BSTAR": 3.4725e-05, "MEAN_MOTION_DOT": 4.7e-07, "MEAN_MOTION_DDOT": 0}, "tle": {"line1": "1 27818U 03023A   25336.12546395  .00000047  00000+0  34725-4 0  9993", "line2": "2 27818  82.9473 280.5205 0032168 140.3156 231.2604 13.72384089126713"}}, "geometry": {"type": "Point", "coordinates": [100.77472035710348, -3.990413115043541]}}, {"type": "Feature", "properties": {"norad_id": 28380, "name": "COSMOS 2407", "group": "musson", "lat": -53.79842808923874, "lon": 50.22642780741395, "alt_km": 1010.2119812189321, "timestamp": "2025-12-02T10:50:47.543773+00:00", "meta": {"OBJECT_NAME": "COSMOS 2407", "OBJECT_ID": "2004-028A", "EPOCH": "2025-12-02T05:02:02.311008", "MEAN_MOTION": 13.76311785, "ECCENTRICITY": 0.0040554, "INCLINATION": 82.9615, "RA_OF_ASC_NODE": 220.6883, "ARG_OF_PERICENTER": 83.3867, "MEAN_ANOMALY": 31.4092, "EPHEMERIS_TYPE": 0, "CLASSIFICATION_TYPE": "U", "NORAD_CAT_ID": 28380, "ELEMENT_SET_NO": 999, "REV_AT_EPOCH": 7278, "BSTAR": 7.6e-05, "MEAN_MOTION_DOT": 9e-07, "MEAN_MOTION_DDOT": 0}, "tle": {"line1": "1 28380U 04028A   25336.20974897  .00000090  00000+0  76000-4 0  9995", "line2": "2 28380  82.9615 220.6883 0040554  83.3867  31.4092 13.76311785 72781"}}, "geometry": {"type": "Point", "coordinates": [50.22642780741395, -53.79842808923874]}}, {"type": "Feature", "properties": {"norad_id": 28521, "name": "COSMOS 2414", "group": "musson", "lat": 67.33424135015461, "lon": -150.3239388562504, "alt_km": 934.5350576080027, "timestamp": "2025-12-02T10:50:47.543785+00:00", "meta": {"OBJECT_NAME": "COSMOS 2414", "OBJECT_ID": "2005-002A", "EPOCH": "2025-12-02T01:51:55.001088", "MEAN_MOTION": 13.87900714, "ECCENTRICITY": 0.0040235, "INCLINATION": 82.9498, "RA_OF_ASC_NODE": 192.7216, "ARG_OF_PERICENTER": 169.6825, "MEAN_ANOMALY": 190.5174, "EPHEMERIS_TYPE": 0, "CLASSIFICATION_TYPE": "U", "NORAD_CAT_ID": 28521, "ELEMENT_SET_NO": 999, "REV_AT_EPOCH": 5647, "BSTAR": 7.4875e-05, "MEAN_MOTION_DOT": 1.05e-06, "MEAN_MOTION_DDOT": 0}, "tle": {"line1": "1 28521U 05002A   25336.07771992  .00000105  00000+0  74875-4 0  9996", "line2": "2 28521  82.9498 192.7216 0040235 169.6825 190.5174 13.87900714 56478"}}, "geometry": {"type": "Point", "coordinates": [-150.3239388562504, 67.33424135015461]}}, {"type": "Feature", "properties": {"norad_id": 32052, "name": "COSMOS 2429", "group": "musson", "lat": -45.436580455844606, "lon": -16.292799466145635, "alt_km": 998.5108162740189, "timestamp": "2025-12-02T10:50:47.543796+00:00", "meta": {"OBJECT_NAME": "COSMOS 2429", "OBJECT_ID": "2007-038A", "EPOCH": "2025-12-02T04:05:03.058656", "MEAN_MOTION": 13.75147806, "ECCENTRICITY": 0.0039664, "INCLINATION": 82.9805, "RA_OF_ASC_NODE": 351.1012, "ARG_OF_PERICENTER": 66.5943, "MEAN_ANOMALY": 293.9377, "EPHEMERIS_TYPE": 0, "CLASSIFICATION_TYPE": "U", "NORAD_CAT_ID": 32052, "ELEMENT_SET_NO": 999, "REV_AT_EPOCH": 91457, "BSTAR": 6.4843e-05, "MEAN_MOTION_DOT": 7.8e-07, "MEAN_MOTION_DDOT": 0}, "tle": {"line1": "1 32052U 07038A   25336.17017429  .00000078  00000+0  64843-4 0  9993", "line2": "2 32052  82.9805 351.1012 0039664  66.5943 293.9377 13.75147806914578"}}, "geometry": {"type": "Point", "coordinates": [-16.292799466145635, -45.436580455844606]}}, {"type": "Feature", "properties": {"norad_id": 35635, "name": "COSMOS 2454", "group": "musson", "lat": 43.48894373922698, "lon": -176.8208970237835, "alt_km": 917.1065048344763, "timestamp": "2025-12-02T10:50:47.543806+00:00", "meta": {"OBJECT_NAME": "COSMOS 2454", "OBJECT_ID": "2009-039A", "EPOCH": "2025-12-02T02:33:26.529984", "MEAN_MOTION": 13.89926549, "ECCENTRICITY": 0.0020469, "INCLINATION": 82.9557, "RA_OF_ASC_NODE": 176.7052, "ARG_OF_PERICENTER": 102.1545, "MEAN_ANOMALY": 14.8125, "EPHEMERIS_TYPE": 0, "CLASSIFICATION_TYPE": "U", "NORAD_CAT_ID": 35635, "ELEMENT_SET_NO": 999, "REV_AT_EPOCH": 83002, "BSTAR": 7.2654e-05, "MEAN_MOTION_DOT": 1.06e-06, "MEAN_MOTION_DDOT": 0}, "tle": {"line1": "1 35635U 09039A   25336.10655706  .00000106  00000+0  72654-4 0  9996", "line2": "2 35635  82.9557 176.7052 0020469 102.1545  14.8125 13.89926549830027"}}, "geometry": {"type": "Point", "coordinates": [-176.8208970237835, 43.48894373922698]}}, {"type": "Feature", "properties": {"norad_id": 36519, "name": "COSMOS 2463", "group": "musson", "lat": 40.4604198751841, "lon": 40.31984551895274, "alt_km": 987.3503548396511, "timestamp": "2025-12-02T10:50:47.543817+00:00", "meta": {"OBJECT_NAME": "COSMOS 2463", "OBJECT_ID": "2010-017A", "EPOCH": "2025-12-02T03:55:34.634784", "MEAN_MOTION": 13.71647684, "ECCENTRICITY": 0.0035137, "INCLINATION": 82.9622, "RA_OF_ASC_NODE": 34.4839, "ARG_OF_PERICENTER": 318.378, "MEAN_ANOMALY": 99.1147, "EPHEMERIS_TYPE": 0, "CLASSIFICATION_TYPE": "U", "NORAD_CAT_ID": 36519, "ELEMENT_SET_NO": 999, "REV_AT_EPOCH": 78092, "BSTAR": 6.5307e-05, "MEAN_MOTION_DOT": 7.4e-07, "MEAN_MOTION_DDOT": 0}, "tle": {"line1": "1 36519U 10017A   25336.16359531  .00000074  00000+0  65307-4 0  9990", "line2": "2 36519  82.9622  34.4839 0035137 318.3780  99.1147 13.71647684780929"}}, "geometry": {"type": "Point", "coordinates": [40.31984551895274, 40.4604198751841]}}]}